STARLINK-36879          
1 67982U 26038X   26066.25001157 -.01553595  72720-3 -33980-2 0  9993
2 67982  97.2704  76.3717 0001360  80.5963  93.6861 15.98295572  2801
STARLINK-36867          
1 67983U 26038Y   26066.25001157 -.01548203  72481-3 -33325-2 0  9991
2 67983  97.2701  76.3748 0001378  80.6470 100.6297 15.98583816  2809
STARLINK-36266          
1 67984U 26038Z   26066.25001157 -.01549151  72458-3 -33592-2 0  9995
2 67984  97.2703  76.3736 0001277  83.3598  94.7684 15.98451170  2774
STARLINK-36802          
1 67985U 26038AA  26066.25001157 -.01548209  72577-3 -33105-2 0  9991
2 67985  97.2700  76.3760 0001162  87.5074  96.6486 15.98703275  2808
STARLINK-36535          
1 67986U 26039A   26066.25001157 -.01699105  79331-3 -51265-2 0  9997
2 67986  42.9972  70.0130 0001521 279.4732 205.7352 15.91375223  2481
STARLINK-36744          
1 67987U 26039B   26066.25001157 -.01670750  77019-3 -50007-2 0  9997
2 67987  42.9972  70.0068 0001568 272.3217 215.2224 15.91525894  2488
STARLINK-36734          
1 67988U 26039C   26066.25001157 -.01675464  77533-3 -49757-2 0  9996
2 67988  42.9973  69.9998 0001590 276.8374 213.4546 15.91677535  2484
STARLINK-36957          
1 67989U 26039D   26066.25001157 -.01663032  76592-3 -48985-2 0  9991
2 67989  42.9971  69.9935 0001599 273.3952 219.2316 15.91833603  2486
STARLINK-36951          
1 67990U 26039E   26066.25001157 -.01660357  76474-3 -48535-2 0  9990
2 67990  42.9972  69.9868 0001603 270.2374 225.0761 15.91979762  2480
STARLINK-36941          
1 67991U 26039F   26066.25001157 -.01650255  75735-3 -47841-2 0  9995
2 67991  42.9971  69.9811 0001524 270.9078 226.5449 15.92138057  2482
STARLINK-36950          
1 67992U 26039G   26066.25001157 -.01652735  76055-3 -47541-2 0  9994
2 67992  42.9971  69.9746 0001546 274.1698 225.8685 15.92287581  2489
STARLINK-36975          
1 67993U 26039H   26066.25001157 -.01643253  75358-3 -46913-2 0  9997
2 67993  42.9970  69.9684 0001505 273.9384 228.5531 15.92430802  2480
